IRIDIUM 136             
1 42962U 17061H   24282.49984556  .00000061  00000+0  14655-4 0  9997
2 42962  86.3907 282.9432 0002113  93.0685 267.0752 14.34217109366440
